IRIDIUM 135             
1 43070U 17083A   26178.89591631  .00000013  00000+0 -23568-5 0  9992
2 43070  86.3974 317.5377 0002179  92.7222 267.4223 14.34217727445680
IRIDIUM 138             
1 43071U 17083B   26178.85151832  .00000018  00000+0 -60128-6 0  9993
2 43071  86.3987 317.2534 0002207  87.2631 272.8817 14.34217704445664
IRIDIUM 116             
1 43072U 17083C   26178.88957359  .00000054  00000+0  12257-4 0  9992
2 43072  86.3973 317.5263 0002187 101.6412 258.5029 14.34217839445707
IRIDIUM 130             
1 43073U 17083D   26178.85785929  .00000083  00000+0  22456-4 0  9996
2 43073  86.3980 317.8158 0002014  97.0054 263.1371 14.34217348445641
IRIDIUM 151             
1 43074U 17083E   26178.90225900  .00000012  00000+0 -26229-5 0  9997
2 43074  86.3973 317.5791 0002090  94.2166 265.9269 14.34217560445676
IRIDIUM 134             
1 43075U 17083F   26178.87054373  .00000179  00000+0  57028-4 0  9991
2 43075  86.3976 317.6003 0002127  94.0142 266.1297 14.34219161445639
IRIDIUM 137             
1 43076U 17083G   26178.88323185  .00000004  00000+0 -57500-5 0  9997
2 43076  86.3976 317.6883 0002400 101.7538 258.3927 14.34217481445709
IRIDIUM 141             
1 43077U 17083H   26178.87688854  .00000008  00000+0 -43173-5 0  9999
2 43077  86.3971 317.5210 0002087  91.5802 268.5633 14.34217522445702
IRIDIUM 153             
1 43078U 17083J   26178.82906747  .00000006  00000+0 -49076-5 0  9995
2 43078  86.3965 286.0214 0002170  91.1871 268.9573 14.34217508446808
IRIDIUM 131             
1 43079U 17083K   26178.86420336  .00000062  00000+0  15222-4 0  9991
2 43079  86.3978 317.7127 0002243  92.0580 268.0872 14.34217840445638
IRIDIUM 144             
1 43249U 18030A   26178.83540736  .00000174  00000+0  55035-4 0  9997
2 43249  86.3964 285.9477 0002193  98.1995 261.9450 14.34216911431667
IRIDIUM 149             
1 43250U 18030B   26178.84175258  .00000035  00000+0  52997-5 0  9994
2 43250  86.3963 285.9119 0002287  93.5223 266.6234 14.34217830431683
IRIDIUM 157             
1 43251U 18030C   26178.79101122  .00000227  00000+0  74022-4 0  9993
2 43251  86.3965 285.9864 0002194  94.9732 265.1714 14.34216906431657
IRIDIUM 140             
1 43252U 18030D   26178.74027018  .00000118  00000+0  35129-4 0  9994
2 43252  86.3966 286.0204 0002186  95.4836 264.6610 14.34217607431705
IRIDIUM 145             
1 43253U 18030E   26178.86711922  .00000167  00000+0  52537-4 0  9998
2 43253  86.3964 285.9393 0002147 101.8941 258.2496 14.34221359431651
IRIDIUM 146             
1 43254U 18030F   26178.77832664  .00000070  00000+0  17835-4 0  9991
2 43254  86.3964 285.9888 0002264  97.6996 262.4457 14.34217856431654
IRIDIUM 148             
1 43255U 18030G   26178.81638245  .00000006  00000+0 -49553-5 0  9999
2 43255  86.3965 286.0163 0002333  95.6201 264.5261 14.34217644431693
IRIDIUM 142             
1 43256U 18030H   26178.78466929  .00000011  00000+0 -31969-5 0  9992
2 43256  86.3960 285.9182 0002169  99.9449 260.1992 14.34217593431658
IRIDIUM 150             
1 43257U 18030J   26178.82272395  .00000100  00000+0  28608-4 0  9993
2 43257  86.3966 286.0189 0002162  95.7245 264.4197 14.34218168431681
IRIDIUM 143             
1 43258U 18030K   26178.80369605  .00000224  00000+0  72784-4 0  9994
2 43258  86.3968 286.1197 0002189  98.1303 262.0141 14.34218743431610
IRIDIUM 161             
1 43478U 18047C   26178.98460374  .00000112  00000+0  27303-4 0  9993
2 43478  86.4482  83.9569 0002508  81.4507 278.6978 14.43277606426694
IRIDIUM 152             
1 43479U 18047D   26178.84618295  .00000106  00000+0  30709-4 0  9993
2 43479  86.3955  83.8759 0002311  82.6504 277.4954 14.34217898424013
IRIDIUM 147             
1 43480U 18047E   26178.99206295  .00000049  00000+0  10392-4 0  9996
2 43480  86.3956  83.8203 0002183  87.2197 272.9249 14.34217887424033
IRIDIUM 110             
1 43481U 18047F   26178.78910079  .00000014  00000+0 -20649-5 0  9996
2 43481  86.3956  83.9971 0002358  78.0451 282.1010 14.34217494423999
IRIDIUM 162             
1 43482U 18047G   26178.97830445  .00000310  00000+0  86018-4 0  9995
2 43482  86.4480  83.8504 0002270  83.1974 276.9485 14.43279727426687
IRIDIUM 160             
1 43569U 18061A   26178.94424166  .00000053  00000+0  11896-4 0  9999
2 43569  86.3953  52.2992 0002254  85.9399 274.2055 14.34217859414916
IRIDIUM 166             
1 43570U 18061B   26178.89984310  .00000041  00000+0  76786-5 0  9994
2 43570  86.3952  52.2680 0002162  88.6160 271.5283 14.34217753414933
IRIDIUM 158             
1 43571U 18061C   26178.93789889  .00000067  00000+0  17030-4 0  9998
2 43571  86.3950  52.2620 0002144  83.9272 276.2168 14.34217576414902
IRIDIUM 165             
1 43572U 18061D   26178.89350065  .00000055  00000+0  12586-4 0  9992
2 43572  86.3954  52.3272 0002148  89.6282 270.5160 14.34217497414922
IRIDIUM 155             
1 43573U 18061E   26178.92521349  .00000062  00000+0  15135-4 0  9993
2 43573  86.3950  52.1824 0002074  85.0235 275.1198 14.34217929414894
