OBJECT_NAME,OBJECT_ID,EPOCH,MEAN_MOTION,ECCENTRICITY,INCLINATION,RA_OF_ASC_NODE,ARG_OF_PERICENTER,MEAN_ANOMALY,EPHEMERIS_TYPE,CLASSIFICATION_TYPE,NORAD_CAT_ID,ELEMENT_SET_NO,REV_AT_EPOCH,BSTAR,MEAN_MOTION_DOT,MEAN_MOTION_DDOT
IRIDIUM 135,2017-083A,2026-06-27T21:30:07.169184,14.34217727,.00021798,86.3974,317.5377,92.7222,267.4223,0,U,43070,999,44568,-.2356795E-5,.13E-6,0
IRIDIUM 138,2017-083B,2026-06-27T20:26:11.182848,14.34217704,.0002207,86.3987,317.2534,87.2631,272.8817,0,U,43071,999,44566,-.601283E-6,.18E-6,0
IRIDIUM 116,2017-083C,2026-06-27T21:20:59.158176,14.34217839,.00021871,86.3973,317.5263,101.6412,258.5029,0,U,43072,999,44570,.12257371E-4,.54E-6,0
IRIDIUM 130,2017-083D,2026-06-27T20:35:19.042656,14.34217348,.00020141,86.3980,317.8158,97.0054,263.1371,0,U,43073,999,44564,.22455531E-4,.83E-6,0
IRIDIUM 151,2017-083E,2026-06-27T21:39:15.177600,14.34217560,.00020903,86.3973,317.5791,94.2166,265.9269,0,U,43074,999,44567,-.2622859E-5,.12E-6,0
IRIDIUM 134,2017-083F,2026-06-27T20:53:34.978272,14.34219161,.00021273,86.3976,317.6003,94.0142,266.1297,0,U,43075,999,44563,.57027947E-4,.179E-5,0
IRIDIUM 137,2017-083G,2026-06-27T21:11:51.231840,14.34217481,.00024008,86.3976,317.6883,101.7538,258.3927,0,U,43076,999,44570,-.5750013E-5,.4E-7,0
IRIDIUM 141,2017-083H,2026-06-27T21:02:43.169856,14.34217522,.00020871,86.3971,317.5210,91.5802,268.5633,0,U,43077,999,44570,-.4317335E-5,.8E-7,0
IRIDIUM 153,2017-083J,2026-06-27T19:53:51.429408,14.34217508,.00021702,86.3965,286.0214,91.1871,268.9573,0,U,43078,999,44680,-.4907597E-5,.6E-7,0
IRIDIUM 131,2017-083K,2026-06-27T20:44:27.170304,14.34217840,.00022433,86.3978,317.7127,92.0580,268.0872,0,U,43079,999,44563,.15221964E-4,.62E-6,0
IRIDIUM 144,2018-030A,2026-06-27T20:02:59.195904,14.34216911,.00021936,86.3964,285.9477,98.1995,261.9450,0,U,43249,999,43166,.55035109E-4,.174E-5,0
IRIDIUM 149,2018-030B,2026-06-27T20:12:07.422912,14.34217830,.00022877,86.3963,285.9119,93.5223,266.6234,0,U,43250,999,43168,.5299737E-5,.35E-6,0
IRIDIUM 157,2018-030C,2026-06-27T18:59:03.369408,14.34216906,.00021942,86.3965,285.9864,94.9732,265.1714,0,U,43251,999,43165,.74021576E-4,.227E-5,0
IRIDIUM 140,2018-030D,2026-06-27T17:45:59.343552,14.34217607,.00021865,86.3966,286.0204,95.4836,264.6610,0,U,43252,999,43170,.35129471E-4,.118E-5,0
IRIDIUM 145,2018-030E,2026-06-27T20:48:39.100608,14.34221359,.00021472,86.3964,285.9393,101.8941,258.2496,0,U,43253,999,43165,.52536756E-4,.167E-5,0
IRIDIUM 146,2018-030F,2026-06-27T18:40:47.421696,14.34217856,.00022647,86.3964,285.9888,97.6996,262.4457,0,U,43254,999,43165,.17835268E-4,.7E-6,0
IRIDIUM 148,2018-030G,2026-06-27T19:35:35.443680,14.34217644,.00023331,86.3965,286.0163,95.6201,264.5261,0,U,43255,999,43169,-.495534E-5,.6E-7,0
IRIDIUM 142,2018-030H,2026-06-27T18:49:55.426656,14.34217593,.00021699,86.3960,285.9182,99.9449,260.1992,0,U,43256,999,43165,-.3196944E-5,.11E-6,0
IRIDIUM 150,2018-030J,2026-06-27T19:44:43.349280,14.34218168,.00021629,86.3966,286.0189,95.7245,264.4197,0,U,43257,999,43168,.28607542E-4,.1E-5,0
IRIDIUM 143,2018-030K,2026-06-27T19:17:19.338720,14.34218743,.00021899,86.3968,286.1197,98.1303,262.0141,0,U,43258,999,43161,.72784455E-4,.224E-5,0
IRIDIUM 161,2018-047C,2026-06-27T23:37:49.763136,14.43277606,.00025084,86.4482,83.9569,81.4507,278.6978,0,U,43478,999,42669,.27302615E-4,.112E-5,0
IRIDIUM 152,2018-047D,2026-06-27T20:18:30.206880,14.34217898,.00023118,86.3955,83.8759,82.6504,277.4954,0,U,43479,999,42401,.30709363E-4,.106E-5,0
IRIDIUM 147,2018-047E,2026-06-27T23:48:34.238880,14.34217887,.00021835,86.3956,83.8203,87.2197,272.9249,0,U,43480,999,42403,.10391509E-4,.49E-6,0
IRIDIUM 110,2018-047F,2026-06-27T18:56:18.308256,14.34217494,.00023582,86.3956,83.9971,78.0451,282.1010,0,U,43481,999,42399,-.2064941E-5,.14E-6,0
IRIDIUM 162,2018-047G,2026-06-27T23:28:45.504480,14.43279727,.000227,86.4480,83.8504,83.1974,276.9485,0,U,43482,999,42668,.86018081E-4,.31E-5,0
IRIDIUM 160,2018-061A,2026-06-27T22:39:42.479424,14.34217859,.00022541,86.3953,52.2992,85.9399,274.2055,0,U,43569,999,41491,.11896083E-4,.53E-6,0
IRIDIUM 166,2018-061B,2026-06-27T21:35:46.443840,14.34217753,.00021628,86.3952,52.2680,88.6160,271.5283,0,U,43570,999,41493,.7678601E-5,.41E-6,0
IRIDIUM 158,2018-061C,2026-06-27T22:30:34.464096,14.34217576,.00021449,86.3950,52.2620,83.9272,276.2168,0,U,43571,999,41490,.17029737E-4,.67E-6,0
IRIDIUM 165,2018-061D,2026-06-27T21:26:38.456160,14.34217497,.00021486,86.3954,52.3272,89.6282,270.5160,0,U,43572,999,41492,.12586036E-4,.55E-6,0
IRIDIUM 155,2018-061E,2026-06-27T22:12:18.445536,14.34217929,.00020746,86.3950,52.1824,85.0235,275.1198,0,U,43573,999,41489,.1513471E-4,.62E-6,0
